HORYU-4                 
1 41340U 16012D   19266.17805403  .00000456  00000-0  27885-4 0  9993
2 41340  31.0043 240.0211 0013883   6.2814 353.7994 15.01313438197522
E-ST@R-II               
1 41459U 16025D   19266.84033169  .00000919  00000-0  50730-4 0  9993
2 41459  98.1015 358.2324 0168025  32.4511 328.6903 15.05659533187160
AAUSAT 4                
1 41460U 16025E   19266.82551833  .00000688  00000-0  38333-4 0  9994
2 41460  98.0926 359.7013 0157871  23.8425 336.9988 15.07618066187307
DIWATA-1                
1 41463U 98067HT  19266.82335317  .00026899  00000-0  11141-3 0  9999
2 41463  51.6273 101.0662 0001344 157.0792 325.3771 15.85621286195167
BEESAT-4                
1 41619U 16040W   19265.82118136  .00000955  00000-0  43108-4 0  9994
2 41619  97.3585 326.2157 0012547  51.5919 308.6442 15.23305987168493
CANX-7                  
1 41788U 16059F   19266.83587679  .00004295  00000-0  64563-3 0  9993
2 41788  98.2432 343.8621 0027597  73.7537 286.6711 14.74783613160324
RAVAN                   
1 41849U 16067B   19266.16398216  .00000998  00000-0  89003-4 0  9996
2 41849  97.9235   6.7413 0009845  67.7514 292.4751 14.98299185156446
CELTEE 1                
1 41850U 16067C   19266.25675453 -.00000418  00000-0 -30957-4 0  9992
2 41850  97.9197   5.2982 0010026  64.8962 295.3298 14.97047862156370
OPTICUBE 04             
1 41851U 16067D   19266.07777200  .00000145  00000-0  17908-4 0  9992
2 41851  97.9181   4.8667 0010001  68.8498 291.3791 14.96827594156337
AEROCUBE 8D             
1 41852U 16067E   19266.21965385  .00000571  00000-0  55227-4 0  9991
2 41852  97.9195   4.8359 0010929  68.8657 291.3731 14.96753848156331
AEROCUBE 8C             
1 41853U 16067F   19266.51227366 -.00000068  00000-0 -63902-6 0  9999
2 41853  97.9200   5.0611 0011480  67.4617 292.7818 14.96723671156373
PROMETHEUS 2-1          
1 41854U 16067G   19266.19764694 -.00000022  00000-0  34237-5 0  9991
2 41854  97.9201   4.9212 0011328  67.5003 292.7416 14.96955588156335
PROMETHEUS 2-3          
1 41855U 16067H   19266.06595208  .00000040  00000-0  88022-5 0  9991
2 41855  97.9203   4.8076 0011487  68.3595 291.8848 14.96961328156312
INS-1B                  
1 41954U 17008G   19265.88148790  .00000884  00000-0  39253-4 0  9993
2 41954  97.3912 329.6255 0009776 157.8073 202.3590 15.24115568144455
BGUSAT                  
1 41999U 17008BD  19266.18503793  .00001676  00000-0  67184-4 0  9998
2 41999  97.3993 332.7122 0008569 167.2924 192.8532 15.26391001144011
DIDO-2                  
1 42000U 17008BE  19265.87509380  .00000585  00000-0  27044-4 0  9994
2 42000  97.3923 330.1708 0008600 174.8731 185.2596 15.24017147143857
PEASSS                  
1 42015U 17008BV  19266.17097582  .00000899  00000-0  38852-4 0  9997
2 42015  97.3934 331.5720 0006400 175.1009 185.0292 15.25012928144453
AL-FARABI 1             
1 42016U 17008BW  19266.32538402  .00001128  00000-0  47095-4 0  9991
2 42016  97.3952 332.3802 0006311 173.3087 186.8236 15.25687995144630
NAYIF-1 (EO-88)         
1 42017U 17008BX  19266.17957733  .00001126  00000-0  46983-4 0  9990
2 42017  97.3947 332.2468 0006291 174.0508 186.0806 15.25722463144630
ALTAIR PATHFINDER       
1 42711U 98067LS  19266.80638520  .00058587  00000-0  20273-3 0  9991
2 42711  51.6308 143.5069 0003419 167.7792 192.3297 15.88899922134488
NSIGHT                  
1 42726U 98067MF  19266.34236553  .00022533  00000-0  15220-3 0  9994
2 42726  51.6346 173.1426 0004865 170.6192 189.4899 15.74973411133031
UCLSAT                  
1 42765U 17036A   19266.39394045  .00000877  00000-0  40349-4 0  9998
2 42765  97.3416 322.2942 0009874 246.2519 113.7682 15.22895305125182
LITUANICASAT-2          
1 42768U 17036D   19265.90660473  .00001393  00000-0  62020-4 0  9992
2 42768  97.3456 321.4802 0013599 238.0774 121.9141 15.23049860124959
AALTO-1                 
1 42775U 17036L   19266.21546474  .00000555  00000-0  27734-4 0  9991
2 42775  97.3398 320.6417 0012515 237.9823 122.0197 15.21440335124880
URSA MAIOR              
1 42776U 17036M   19265.77299856  .00000549  00000-0  27351-4 0  9999
2 42776  97.3409 320.3898 0012328 239.4746 120.5274 15.21581362124826
COMPASS 2               
1 42777U 17036N   19266.38008115  .00001249  00000-0  55874-4 0  9993
2 42777  97.3451 322.4099 0011068 236.8351 123.1825 15.23098271124985
DIAMOND RED             
1 42783U 17036U   19266.14567312  .00000646  00000-0  30971-4 0  9994
2 42783  97.3416 321.5736 0010545 248.9160 111.0950 15.22327221124920
PEGASUS                 
1 42784U 17036V   19266.82869877  .00000795  00000-0  37111-4 0  9999
2 42784  97.3419 322.5082 0010469 245.4483 114.5663 15.22638282125049
DIAMOND GREEN           
1 42785U 17036W   19266.40741828  .00000715  00000-0  34000-4 0  9995
2 42785  97.3418 321.8561 0010444 248.4973 111.5151 15.22326609124958
DIAMOND BLUE            
1 42786U 17036X   19266.40659472  .00000705  00000-0  33565-4 0  9993
2 42786  97.3417 321.8528 0010278 248.7584 111.2556 15.22327114124955
NUDTSAT                 
1 42787U 17036Y   19265.90960790  .00001220  00000-0  53758-4 0  9995
2 42787  97.3452 322.4528 0009909 254.0694 105.9444 15.23670122124792
SUCHAI                  
1 42788U 17036Z   19266.15165273  .00000922  00000-0  42019-4 0  9993
2 42788  97.3425 322.2126 0010013 246.8178 113.2005 15.23078269125036
SKCUBE                  
1 42789U 17036AA  19265.31989666  .00000819  00000-0  37805-4 0  9993
2 42789  97.3422 321.3225 0009844 250.3144 109.7032 15.22965441124829
VZLUSAT-1               
1 42790U 17036AB  19265.69967264  .00001135  00000-0  50218-4 0  9991
2 42790  97.3439 322.2474 0009450 247.0642 112.9599 15.23661433124913
ROBUSTA-1B              
1 42792U 17036AD  19265.83138558  .00000899  00000-0  40991-4 0  9998
2 42792  97.3422 321.9952 0009437 248.8399 111.1830 15.23141647124927
CICERO 6                
1 42793U 17036AE  19266.77209054  .00000629  00000-0  29959-4 0  9995
2 42793  97.3402 322.6187 0008718 246.9475 113.0842 15.22691113125123
D-SAT                   
1 42794U 17036AF  19266.10417516 -.00000010  00000-0  45580-5 0  9991
2 42794  97.5307 306.5206 0126563 179.5630 180.5723 14.91134814122709
CORVUS BC2              
1 42846U 17042X   19266.12061530  .00000222  00000-0  27153-4 0  9998
2 42846  97.5523 156.2144 0011173  92.8311 267.4187 14.92000945119399
CORVUS BC1              
1 42847U 17042Y   19266.80504371 -.00000022  00000-0  30393-5 0  9999
2 42847  97.5524 156.9930 0010836  90.2410 270.0052 14.92101804119496
MIRATA                  
1 43015U 17073C   19266.42759260  .00000449  00000-0  40706-4 0  9998
2 43015  97.7163 183.8742 0254246 202.2467 156.7558 14.79116217 99595
MAKERSAT 0              
1 43016U 17073D   19265.30856583  .00000285  00000-0  27912-4 0  9993
2 43016  97.7197 183.0015 0256525 206.3938 152.4019 14.78832729 99416
ASTERIA                 
1 43020U 98067NH  19266.22063772  .00026859  00000-0  18636-3 0  9999
2 43020  51.6419 185.3678 0002760 129.4505 230.6739 15.74241969105044
DELLINGR (RBLE)         
1 43021U 98067NJ  19266.40364818  .00008046  00000-0  87726-4 0  9990
2 43021  51.6370 202.9801 0003059 106.9040 253.2291 15.64411889104829
AEROCUBE 7B (OCSD B)    
1 43042U 17071F   19266.56013059  .00002426  00000-0  66222-4 0  9998
2 43042  51.6381 299.1791 0004741 140.7828 219.3501 15.41652798101026
AEROCUBE 7C (OCSD C)    
1 43043U 17071G   19265.91188196  .00001749  00000-0  50454-4 0  9999
2 43043  51.6395 302.3649 0004967 143.4846 216.6479 15.41651126100893
CHEFSAT                 
1 43044U 17071H   19266.44119412  .00003454  00000-0  81960-4 0  9995
2 43044  51.6388 292.5493 0004630 143.3606 216.7698 15.44605996101075
ASGARDIA 1              
1 43049U 17071N   19266.69895835  .00002434  00000-0  66132-4 0  9998
2 43049  51.6392 297.9101 0002377 155.2330 204.8770 15.41772826101019
ISARA                   
1 43050U 17071P   19265.71148435  .00003634  00000-0  87232-4 0  9996
2 43050  51.6378 297.3715 0002161 146.1762 213.9363 15.44082178100935
PROPCUBE 2 (FAUNA)      
1 43052U 17071R   19266.10308748  .00002414  00000-0  65053-4 0  9999
2 43052  51.6389 299.9498 0002389 149.1165 210.9961 15.42077497100934
CORVUS BC3              
1 43118U 18004H   19266.19442517  .00000566  00000-0  27140-4 0  9992
2 43118  97.4782 333.1946 0008770 274.3035  85.7199 15.22949298 94161
MICROMAS-2A             
1 43131U 18004W   19266.18219770  .00001302  00000-0  56159-4 0  9990
2 43131  97.4811 334.0996 0007723 275.3282  84.7074 15.24347188 94215
SPACEBEE-4              
1 43139U 18004AE  19265.75435583  .00001744  00000-0  72221-4 0  9990
2 43139  97.4834 334.3033 0007125 279.6967  80.3465 15.25267999 94179
SPACEBEE-3              
1 43140U 18004AF  19265.89488218  .00002163  00000-0  87342-4 0  9996
2 43140  97.4843 334.7795 0006879 277.7082  82.3375 15.25858930 94221
SPACEBEE-2              
1 43141U 18004AG  19266.18131598  .00002547  00000-0  10172-3 0  9998
2 43141  97.4850 335.1804 0006820 275.6604  84.3856 15.26062472 94279
SPACEBEE-1              
1 43142U 18004AH  19266.46227940  .00002712  00000-0  10742-3 0  9994
2 43142  97.4853 335.5937 0006811 274.1673  85.8787 15.26290529 94314
CICERO 7                
1 43143U 18004AJ  19266.19779773  .00001235  00000-0  53269-4 0  9992
2 43143  97.4796 334.3289 0005909 287.4500  72.6091 15.24461214 94233
GOMX-4B                 
1 43196U 18015E   19265.89592674  .00000287  00000-0  14788-4 0  9990
2 43196  97.4019  32.1504 0018915 333.2890  26.7377 15.24009176 90996
GOMX-4A                 
1 43197U 18015F   19266.68193704  .00000426  00000-0  20437-4 0  9993
2 43197  97.4039  32.9632 0018655 331.5471 152.0224 15.24114992 91129
1KUNS-PF                
1 43466U 98067NP  19266.30083013  .00021684  00000-0  18515-3 0  9999
2 43466  51.6350 202.9889 0002062 112.1234 247.9982 15.69437035 78073
